{
  "norad_id": 68464,
  "name": "TRANSPORTER-16 OBJECT BA",
  "history": [
    {
      "epoch": "2026-04-14T03:25:29.286912Z",
      "apogee_km": 515.4816607501389,
      "perigee_km": 512.7666612336006,
      "latitude_deg": 3.230978828148691e-05,
      "longitude_deg": 169.8549019401983,
      "height_km": 516.0105266496496,
      "semi_major_axis_km": 6892.2611609918695,
      "eccentricity": 0.00019696,
      "inclination_deg": 97.4467,
      "raan_deg": 63.5503,
      "arg_perigee_deg": 332.1363,
      "mean_anomaly_deg": 27.9765,
      "mean_motion_rev_day": 15.17260578
    }
  ]
}