TRANSPORTER-16 OBJECT BA
1 68464U 26067BA  26104.14270008  .00002939  00000+0  15100-3 0  9996
2 68464  97.4467  63.5503 0001969 332.1363  27.9765 15.17260578  2229
